{"type": "FeatureCollection", "features": [{"type": "Feature", "properties": {"aor": "CENTCOM", "member_count": 22, "source": "Natural Earth 1:50m admin-0 countries (public domain)"}, "geometry": {"type": "MultiPolygon", "coordinates": [[[[42.755859, 13.704297], [42.689746, 13.673633], [42.734961, 13.752979], [42.794141, 13.766113], [42.755859, 13.704297]]], [[[42.79834, 14.012256], [42.774219, 13.950244], [42.694043, 14.00791], [42.762109, 14.06748], [42.79834, 14.012256]]], [[[42.624512, 15.367969], [42.590234, 15.303418], [42.558691, 15.281201], [42.549023, 15.320068], [42.569727, 15.407324], [42.602344, 15.43252], [42.624512, 15.367969]]], [[[42.17041, 16.708643], [42.157813, 16.570703], [42.071777, 16.671484], [41.96416, 16.653467], [41.897266, 16.684277], [41.801563, 16.77876], [41.776074, 16.846875], [41.858203, 16.89292], [41.884961, 16.946826], [41.860449, 17.002539], [41.917285, 16.993652], [41.947949, 16.936426], [41.9625, 16.778662], [41.94668, 16.748926], [41.987695, 16.715625], [42.065039, 16.710059], [42.026367, 16.757666], [42.059961, 16.803516], [42.17041, 16.708643]]], [[[42.730664, 16.569824], [42.726367, 16.65332], [42.698828, 16.736963], [42.647461, 16.801367], [42.55293, 16.868457], [42.544141, 16.959668], [42.475, 17.049854], [42.383301, 17.122461], [42.332422, 17.256641], [42.293945, 17.434961], [42.052246, 17.669336], [41.75, 17.885742], [41.658008, 18.007666], [41.507617, 18.256104], [41.431738, 18.452441], [41.229492, 18.678418], [41.220801, 18.765234], [41.116016, 19.082178], [40.913281, 19.490137], [40.847852, 19.555273], [40.791602, 19.646387], [40.75918, 19.755469], [40.615918, 19.822363], [40.482227, 19.993457], [40.080664, 20.265918], [39.884082, 20.292969], [39.72832, 20.390332], [39.613672, 20.517676], [39.491211, 20.737012], [39.276074, 20.973975], [39.093555, 21.310352], [39.150684, 21.432764], [39.14707, 21.518994], [38.987891, 21.881738], [39.021191, 22.033447], [39.033984, 22.203369], [39.095898, 22.392773], [39.062012, 22.592187], [39.001367, 22.698975], [39.007422, 22.770068], [38.93877, 22.804785], [38.88291, 22.882031], [38.941113, 22.881836], [38.796875, 23.048584], [38.757031, 23.194287], [38.706055, 23.305518], [38.542285, 23.55791], [38.46416, 23.711865], [38.288867, 23.910986], [38.098633, 24.058008], [37.977832, 24.124561], [37.919727, 24.1854], [37.820996, 24.1875], [37.713379, 24.274414], [37.543066, 24.29165], [37.338477, 24.61582], [37.180859, 24.82002], [37.266309, 24.960059], [37.218359, 25.150684], [37.148828, 25.291113], [36.920703, 25.641162], [36.762695, 25.751318], [36.702539, 25.902881], [36.675195, 26.038867], [36.51875, 26.104883], [36.249609, 26.594775], [36.09375, 26.76582], [36.032031, 26.881006], [35.85166, 27.070459], [35.762988, 27.258789], [35.581348, 27.432471], [35.423828, 27.733789], [35.180469, 28.034863], [35.07832, 28.087012], [34.72207, 28.130664], [34.625, 28.064502], [34.616211, 28.14834], [34.683301, 28.264111], [34.779883, 28.507324], [34.799121, 28.720508], [34.982227, 29.484473], [34.973438, 29.555029], [34.848535, 29.432129], [34.736426, 29.270605], [34.617188, 28.75791], [34.446484, 28.357324], [34.427148, 28.106494], [34.399707, 28.016016], [34.220117, 27.764307], [34.045117, 27.828857], [33.760254, 28.047656], [33.594141, 28.255566], [33.416113, 28.389844], [33.247754, 28.567725], [33.201953, 28.695703], [33.203711, 28.777783], [33.130176, 28.978271], [33.075781, 29.073047], [32.870605, 29.28623], [32.811719, 29.4], [32.721484, 29.521777], [32.647168, 29.798437], [32.565723, 29.973975], [32.473047, 29.925439], [32.489453, 29.851514], [32.408594, 29.749316], [32.359766, 29.630664], [32.397266, 29.533789], [32.565039, 29.386328], [32.599023, 29.321924], [32.638086, 29.182178], [32.631836, 28.992236], [32.658887, 28.927734], [32.784473, 28.786621], [32.898242, 28.565234], [33.022852, 28.442285], [33.202148, 28.208301], [33.372266, 28.050586], [33.494922, 27.974463], [33.54707, 27.898145], [33.549805, 27.607373], [33.697266, 27.341113], [33.80166, 27.268164], [33.849316, 27.184912], [33.893066, 27.049463], [33.959082, 26.649023], [34.049512, 26.550732], [34.329297, 26.024365], [34.565137, 25.691162], [34.679297, 25.442529], [34.853223, 25.139795], [35.194141, 24.475146], [35.39707, 24.269971], [35.477832, 24.154785], [35.624707, 24.066016], [35.783887, 23.937793], [35.632031, 23.950342], [35.54082, 23.920654], [35.504395, 23.779297], [35.522754, 23.442529], [35.564355, 23.271094], [35.697852, 22.946191], [35.845801, 22.785693], [35.913379, 22.739648], [36.229688, 22.628809], [36.414551, 22.394189], [36.829688, 22.097656], [36.871387, 21.996729], [31.434473, 21.99585], [31.486133, 22.147803], [31.464258, 22.191504], [31.400293, 22.202441], [31.358496, 22.188623], [31.260645, 22.002295], [31.20918, 21.994873], [24.980273, 21.99585], [24.980273, 29.181885], [24.865918, 29.570264], [24.803711, 29.886035], [24.711621, 30.131543], [24.703223, 30.201074], [24.877539, 30.45752], [24.961426, 30.678516], [24.973926, 30.776562], [24.877539, 31.06123], [24.852734, 31.334814], [25.150488, 31.65498], [25.225488, 31.533789], [25.382227, 31.512793], [25.893262, 31.620898], [27.248047, 31.377881], [27.540039, 31.212695], [27.620117, 31.191748], [27.82998, 31.19502], [27.967578, 31.097412], [28.514844, 31.050439], [28.806934, 30.942676], [28.972754, 30.856738], [29.07207, 30.830273], [29.159961, 30.83457], [29.278906, 30.866943], [29.428516, 30.927441], [29.591602, 31.011523], [29.929785, 31.22749], [30.049414, 31.26543], [30.222656, 31.258398], [30.395117, 31.457617], [30.570996, 31.472998], [30.923535, 31.566846], [30.88418, 31.522363], [30.562988, 31.416992], [30.700488, 31.403857], [31.001758, 31.462793], [31.030859, 31.507568], [31.051953, 31.591553], [31.08291, 31.60332], [31.193945, 31.587598], [31.524414, 31.458252], [31.606543, 31.455762], [31.888965, 31.541406], [31.964258, 31.5021], [32.136035, 31.341064], [32.076074, 31.344482], [31.892188, 31.482471], [31.875879, 31.413721], [31.771094, 31.292578], [31.902051, 31.240186], [32.008496, 31.220508], [32.101758, 31.092822], [32.206543, 31.119043], [32.281836, 31.200879], [32.216211, 31.29375], [32.250586, 31.294922], [32.323535, 31.256055], [32.532813, 31.100732], [32.60332, 31.06875], [32.68457, 31.074023], [32.854492, 31.117725], [32.901563, 31.110937], [33.129883, 31.168164], [33.194336, 31.084521], [33.37793, 31.130957], [33.666504, 31.13042], [33.902539, 31.180957], [34.17627, 31.303906], [34.387305, 31.483789], [34.483984, 31.592285], [34.678418, 31.895703], [34.803809, 32.196338], [34.921875, 32.614062], [35.077051, 32.967187], [35.108594, 33.083691], [35.203516, 33.258984], [35.251367, 33.392627], [35.335742, 33.503467], [35.51084, 33.879736], [35.611816, 34.032178], [35.647852, 34.248242], [35.804297, 34.437402], [35.921387, 34.493311], [35.97793, 34.547412], [35.97627, 34.629199], [35.899316, 34.8521], [35.887891, 34.948633], [35.889941, 35.060303], [35.943066, 35.223828], [35.902441, 35.420703], [35.764453, 35.571582], [35.839648, 35.849219], [35.892676, 35.916553], [35.967578, 35.910059], [36.127344, 35.831445], [36.153613, 35.833887], [36.201953, 35.937549], [36.248828, 35.972705], [36.347559, 36.003516], [36.375391, 36.17124], [36.477051, 36.220703], [36.636719, 36.233984], [36.641406, 36.263525], [36.5375, 36.457422], [36.596875, 36.701367], [36.628418, 36.777686], [36.658594, 36.802539], [36.941797, 36.758398], [36.985352, 36.702393], [37.066211, 36.652637], [37.436328, 36.643311], [38.191699, 36.901562], [38.44375, 36.862256], [38.688867, 36.715088], [38.766602, 36.693115], [39.356641, 36.681592], [39.686523, 36.738623], [40.016406, 36.826074], [40.450391, 37.008887], [40.705664, 37.097705], [40.958887, 37.10918], [41.264648, 37.069336], [41.515527, 37.08916], [41.886816, 37.156396], [42.059863, 37.206055], [42.167871, 37.288623], [42.202734, 37.297266], [42.268555, 37.276562], [42.312891, 37.22959], [42.358984, 37.108594], [42.455859, 37.128711], [42.635449, 37.249268], [42.741113, 37.361914], [42.774609, 37.371875], [42.936621, 37.324756], [43.09248, 37.367383], [43.51582, 37.244531], [43.675781, 37.227246], [43.836426, 37.223535], [44.013184, 37.313525], [44.114453, 37.301855], [44.191797, 37.249854], [44.208398, 37.202637], [44.20166, 37.051807], [44.245703, 36.983301], [44.281836, 36.978027], [44.605957, 37.176025], [44.730957, 37.165283], [44.765137, 37.142432], [44.758301, 37.21709], [44.796777, 37.269775], [44.794141, 37.290381], [44.715137, 37.357129], [44.574023, 37.4354], [44.577148, 37.560205], [44.545313, 37.658154], [44.589941, 37.710352], [44.56123, 37.744629], [44.33623, 37.871777], [44.222949, 37.880176], [44.211328, 37.908057], [44.267969, 38.038818], [44.348926, 38.146484], [44.380859, 38.25459], [44.449609, 38.317773], [44.449902, 38.334229], [44.430859, 38.356787], [44.298535, 38.386279], [44.297852, 38.557812], [44.257031, 38.700635], [44.27168, 38.836035], [44.170801, 38.934375], [44.144531, 38.994385], [44.171875, 39.05625], [44.178027, 39.144824], [44.079102, 39.218311], [44.05752, 39.31084], [44.023242, 39.377441], [44.124023, 39.405225], [44.335449, 39.396045], [44.389355, 39.422119], [44.455957, 39.666748], [44.516699, 39.73125], [44.587109, 39.768555], [44.782129, 39.651074], [44.817188, 39.650439], [45.000195, 39.423535], [45.07168, 39.362891], [45.141211, 39.254297], [45.335547, 39.13916], [45.479688, 39.00625], [45.575, 38.972803], [46.170117, 38.869043], [46.317773, 38.912646], [46.554785, 38.904395], [46.852539, 39.148438], [46.988867, 39.180176], [47.188379, 39.340967], [47.338477, 39.423877], [47.772852, 39.648584], [47.892285, 39.685059], [47.995898, 39.683936], [48.281738, 39.44834], [48.322168, 39.399072], [48.257227, 39.35498], [48.136035, 39.312354], [48.104395, 39.241113], [48.125488, 39.171631], [48.274121, 39.099121], [48.29209, 39.018848], [48.241992, 38.978955], [48.050098, 38.93501], [47.992676, 38.884277], [47.996484, 38.85376], [48.023242, 38.819043], [48.204688, 38.724121], [48.261328, 38.642285], [48.305566, 38.613477], [48.38125, 38.605615], [48.417383, 38.58623], [48.592676, 38.411084], [48.635547, 38.39873], [48.86875, 38.435498], [48.925098, 38.015137], [48.959961, 37.890137], [49.080957, 37.667578], [49.171191, 37.600586], [49.372461, 37.519971], [49.470117, 37.49668], [49.980664, 37.444873], [50.130469, 37.407129], [50.214063, 37.3396], [50.337891, 37.14917], [50.533203, 37.013672], [50.927441, 36.810205], [51.118555, 36.742578], [51.762012, 36.614502], [52.190137, 36.621729], [53.374121, 36.86875], [53.767676, 36.930322], [53.91543, 36.930322], [53.827441, 36.881201], [53.679492, 36.853125], [53.76875, 36.818457], [53.90625, 36.812695], [53.970117, 36.818311], [54.016211, 36.849658], [54.017188, 36.95249], [53.951953, 37.181738], [53.847852, 37.66958], [53.823535, 37.92793], [53.854102, 38.285645], [53.840039, 38.514941], [53.885352, 38.864062], [53.868652, 38.949268], [53.724121, 39.103076], [53.70459, 39.20957], [53.617578, 39.215967], [53.475, 39.305713], [53.336328, 39.34082], [53.266797, 39.342627], [53.20332, 39.316797], [53.156641, 39.26499], [53.124023, 39.34668], [53.124805, 39.43208], [53.235645, 39.608545], [53.30498, 39.55708], [53.389648, 39.536426], [53.603125, 39.546973], [53.582422, 39.607422], [53.472266, 39.668799], [53.450488, 39.748535], [53.458301, 39.831201], [53.487305, 39.909375], [53.404199, 39.960352], [52.9875, 39.987598], [52.952148, 39.895459], [53.035547, 39.774414], [52.898242, 39.9125], [52.804688, 40.054004], [52.744434, 40.219775], [52.733691, 40.39873], [52.849902, 40.685645], [52.943457, 41.038086], [53.05957, 40.889746], [53.145215, 40.824951], [53.33291, 40.782715], [53.423633, 40.792773], [53.520313, 40.831055], [53.615234, 40.818506], [53.76377, 40.665674], [53.87002, 40.648682], [54.192969, 40.72041], [54.283301, 40.693701], [54.377344, 40.693262], [54.33623, 40.764941], [54.319434, 40.83457], [54.374414, 40.871387], [54.54707, 40.832275], [54.685059, 40.873047], [54.710059, 40.891113], [54.723242, 40.95127], [54.703711, 41.071143], [54.671484, 41.122168], [54.592188, 41.193555], [54.28457, 41.363721], [54.181055, 41.431592], [54.094824, 41.519385], [53.846484, 42.091162], [53.752344, 42.129395], [53.624902, 42.136377], [53.284961, 42.081836], [53.16416, 42.093799], [52.97002, 41.976221], [52.905273, 41.895752], [52.814844, 41.711816], [52.883496, 41.652539], [52.830176, 41.341895], [52.861816, 41.210059], [52.850391, 41.200293], [52.747266, 41.36543], [52.609375, 41.529443], [52.493848, 41.780371], [52.467578, 41.885889], [52.462109, 42.100635], [52.618359, 42.428223], [52.638477, 42.555664], [52.596582, 42.760156], [52.55, 42.805469], [52.493945, 42.820264], [52.324414, 42.816162], [52.273047, 42.799805], [52.183691, 42.86875], [52.075586, 42.879785], [51.960742, 42.850586], [51.898242, 42.869629], [51.844141, 42.910449], [51.700391, 43.104053], [51.616016, 43.158447], [51.29541, 43.174121], [51.313379, 43.355664], [51.301758, 43.482373], [51.238965, 43.576709], [51.139648, 43.648779], [51.064844, 43.750146], [50.939844, 43.958545], [50.830762, 44.192773], [50.782617, 44.228027], [50.684961, 44.265088], [50.331152, 44.325488], [50.275586, 44.355127], [50.252539, 44.406494], [50.264551, 44.526562], [50.297461, 44.581543], [50.409473, 44.624023], [50.860352, 44.62876], [51.048828, 44.530469], [51.177148, 44.501367], [51.37666, 44.541211], [51.543555, 44.531006], [51.49375, 44.577539], [51.431055, 44.601953], [51.366309, 44.599854], [51.310254, 44.61875], [51.218164, 44.708984], [51.05791, 44.811572], [51.020703, 44.854004], [51.009375, 44.921826], [51.040332, 44.980322], [51.153711, 45.040234], [51.249902, 45.12168], [51.294043, 45.229785], [51.415723, 45.357861], [51.539648, 45.342871], [51.732617, 45.399463], [52.04873, 45.388379], [52.426758, 45.404639], [52.531055, 45.398633], [52.910742, 45.319727], [53.078906, 45.30752], [53.200391, 45.331982], [53.085742, 45.407373], [52.8375, 45.496729], [52.773828, 45.572754], [52.8875, 45.779541], [53.041602, 45.967871], [53.135254, 46.19165], [53.108984, 46.414062], [53.063965, 46.475293], [53.078516, 46.547461], [53.170215, 46.669043], [53.1375, 46.742041], [53.03457, 46.89292], [52.916016, 46.954395], [52.677637, 46.957129], [52.483203, 46.990674], [52.420313, 46.963672], [52.340332, 46.894775], [52.138281, 46.828613], [52.085547, 46.8396], [52.011133, 46.901904], [51.945117, 46.894873], [51.744531, 46.93374], [51.650098, 47.018066], [51.615234, 47.029932], [51.178027, 47.110156], [50.92002, 47.040674], [50.58291, 46.882275], [50.419336, 46.879492], [50.30625, 46.794922], [49.999805, 46.634277], [49.886328, 46.595654], [49.347461, 46.519141], [49.362109, 46.410205], [49.28584, 46.436816], [49.205664, 46.385693], [49.232227, 46.337158], [48.586035, 46.5771], [48.541211, 46.605615], [48.50918, 46.649951], [48.502344, 46.698633], [48.518555, 46.734326], [48.558398, 46.757129], [48.605273, 46.765918], [48.776367, 46.710352], [48.883594, 46.70542], [48.950293, 46.725781], [48.959375, 46.774609], [48.552539, 47.320996], [48.166992, 47.708789], [48.109961, 47.74541], [47.481934, 47.803906], [47.292383, 47.740918], [47.202051, 47.79248], [47.130762, 47.876758], [47.093262, 47.947705], [47.119043, 48.127002], [47.064648, 48.232471], [47.004297, 48.284473], [46.853125, 48.323584], [46.660938, 48.412256], [46.60918, 48.573877], [46.702637, 48.805566], [46.85293, 48.969629], [46.962207, 49.03833], [47.014258, 49.09834], [47.031348, 49.150293], [47.018164, 49.199902], [46.953418, 49.252588], [46.85293, 49.303857], [46.802051, 49.36709], [46.823145, 49.502246], [46.889551, 49.696973], [46.991992, 49.852734], [47.24834, 50.000879], [47.295215, 50.058496], [47.294727, 50.21748], [47.326465, 50.273535], [47.429199, 50.357959], [47.503613, 50.402734], [47.599609, 50.413574], [47.705762, 50.377979], [47.849609, 50.282324], [48.224805, 49.931934], [48.334961, 49.858252], [48.434277, 49.828516], [48.758984, 49.92832], [48.810254, 49.962402], [48.843262, 50.013135], [48.817969, 50.099854], [48.700488, 50.35376], [48.666016, 50.550342], [48.625098, 50.612695], [48.808398, 50.601318], [49.323438, 50.851709], [49.424609, 51.027002], [49.498047, 51.083594], [49.822266, 51.131885], [49.932324, 51.197168], [50.246875, 51.289502], [50.309277, 51.321582], [50.516309, 51.505615], [50.756152, 51.675146], [50.793945, 51.729199], [51.163477, 51.647461], [51.269922, 51.594482], [51.301074, 51.497412], [51.344531, 51.475342], [51.609082, 51.483984], [52.007129, 51.672705], [52.219141, 51.709375], [52.331055, 51.681299], [52.496191, 51.512158], [52.571191, 51.481641], [52.735059, 51.4979], [52.820508, 51.49458], [52.902637, 51.466943], [53.038379, 51.463721], [53.247266, 51.493604], [53.338086, 51.482373], [53.534668, 51.399561], [53.688086, 51.251807], [53.956836, 51.161182], [54.139746, 51.040771], [54.297852, 50.914062], [54.421484, 50.780322], [54.471484, 50.583789], [54.517383, 50.541162], [54.555273, 50.535791], [54.596191, 50.550684], [54.636133, 50.591602], [54.65, 50.660156], [54.637891, 50.781055], [54.60625, 50.879883], [54.546094, 50.946045], [54.572949, 50.990234], [54.641602, 51.011572], [54.727148, 50.998096], [54.867969, 50.941357], [55.014844, 50.869775], [55.195215, 50.744727], [55.361133, 50.665283], [55.542285, 50.601807], [55.68623, 50.582861], [55.797656, 50.602051], [56.049707, 50.713525], [56.143945, 50.844629], [56.491406, 51.019531], [56.620215, 50.980859], [56.849609, 51.045557], [57.011719, 51.065186], [57.179004, 51.036035], [57.3125, 50.946533], [57.442188, 50.888867], [57.557813, 50.895557], [57.653809, 50.925146], [57.764844, 51.046875], [57.838867, 51.09165], [58.045117, 51.068848], [58.188477, 51.081738], [58.35918, 51.063818], [58.547461, 50.971045], [58.814063, 50.737207], [58.883691, 50.694434], [59.452344, 50.62041], [59.523926, 50.582812], [59.497852, 50.511084], [59.523047, 50.492871], [59.751172, 50.543945], [59.812402, 50.582031], [59.955176, 50.799268], [60.005273, 50.839697], [60.058594, 50.850293], [60.112109, 50.83418], [60.288086, 50.70415], [60.424805, 50.67915], [60.637988, 50.663721], [60.942285, 50.695508], [61.226855, 50.774805], [61.389453, 50.861035], [61.465039, 50.990234], [61.512207, 51.137012], [61.585059, 51.229687], [61.554688, 51.324609], [61.363086, 51.441895], [61.014844, 51.492383], [60.973535, 51.537061], [60.464746, 51.651172], [60.418359, 51.703906], [60.3875, 51.772998], [60.280371, 51.834619], [60.06748, 51.890625], [60.030273, 51.933252], [60.065527, 51.976465], [60.233691, 52.024512], [60.425488, 52.125586], [60.499316, 52.146338], [60.670313, 52.15083], [60.937598, 52.280566], [60.994531, 52.336865], [60.979492, 52.394775], [60.821289, 52.569824], [60.774414, 52.675781], [60.802344, 52.744727], [60.944727, 52.860156], [61.047461, 52.972461], [61.400781, 52.995996], [61.974219, 52.94375], [62.037109, 52.966113], [62.082715, 53.00542], [62.081055, 53.057422], [62.014648, 53.107861], [61.766211, 53.173926], [61.659863, 53.228467], [61.576172, 53.222461], [61.436816, 53.239404], [61.310938, 53.275195], [61.199219, 53.287158], [61.162793, 53.336768], [61.185938, 53.406201], [61.228906, 53.445898], [61.311621, 53.465723], [61.400977, 53.455811], [61.498535, 53.484668], [61.534961, 53.523291], [61.519141, 53.554492], [61.474121, 53.580273], [61.409961, 53.587061], [61.247949, 53.550977], [60.979492, 53.621729], [60.985547, 53.657422], [61.073535, 53.710449], [61.113184, 53.753467], [61.113184, 53.882471], [61.14375, 53.963818], [61.231055, 54.019482], [61.333691, 54.049268], [61.928711, 53.946484], [61.985645, 53.954395], [62.040234, 54.002637], [62.499023, 54.013184], [62.632715, 54.069287], [63.073926, 54.105225], [63.191309, 54.171045], [63.413672, 54.183203], [63.701367, 54.243213], [63.84707, 54.236475], [64.003906, 54.26709], [64.062891, 54.30293], [64.199414, 54.347412], [64.46123, 54.38418], [64.525098, 54.362158], [64.649902, 54.352246], [64.926758, 54.396631], [65.088379, 54.340186], [65.157813, 54.364404], [65.237402, 54.516064], [65.378125, 54.564453], [65.476953, 54.623291], [65.707813, 54.618701], [65.914258, 54.693311], [65.954688, 54.659521], [66.222656, 54.667383], [67.09834, 54.788184], [67.257324, 54.828809], [67.693359, 54.872412], [67.829883, 54.943555], [68.155859, 54.976709], [68.209375, 55.003027], [68.244043, 55.052441], [68.20625, 55.160937], [68.301953, 55.186523], [68.524805, 55.204834], [68.712891, 55.308496], [68.977246, 55.3896], [69.493262, 55.356885], [69.740234, 55.307373], [69.981738, 55.199072], [70.182422, 55.162451], [70.371484, 55.212256], [70.417188, 55.253174], [70.486328, 55.282373], [70.738086, 55.305176], [70.910156, 55.127979], [71.185547, 54.599316], [71.15918, 54.538623], [71.152148, 54.364062], [71.052734, 54.260498], [71.093164, 54.212207], [71.336426, 54.15835], [71.677148, 54.178027], [71.887402, 54.221484], [72.004492, 54.205664], [72.065625, 54.231641], [72.105371, 54.308447], [72.186035, 54.325635], [72.269141, 54.272119], [72.387305, 54.123047], [72.383008, 54.053662], [72.404297, 53.964453], [72.446777, 53.941846], [72.585938, 53.995947], [72.599219, 54.023047], [72.564258, 54.09043], [72.582715, 54.121582], [72.622266, 54.134326], [72.914062, 54.107324], [73.119336, 53.980762], [73.229883, 53.957812], [73.380664, 53.962842], [73.505664, 53.999316], [73.617969, 54.067383], [73.712402, 54.042383], [73.715527, 53.996191], [73.678906, 53.929443], [73.399414, 53.811475], [73.305664, 53.707227], [73.285742, 53.598389], [73.361914, 53.506201], [73.371875, 53.454395], [73.406934, 53.447559], [73.469922, 53.468896], [73.642969, 53.57627], [73.858984, 53.619727], [74.068652, 53.611426], [74.209961, 53.576465], [74.351562, 53.487646], [74.402734, 53.504443], [74.429297, 53.550732], [74.430469, 53.603711], [74.451953, 53.647266], [74.83418, 53.825684], [75.052148, 53.826709], [75.220215, 53.893799], [75.377051, 53.970117], [75.398145, 54.068506], [75.437207, 54.089648], [75.692871, 54.114795], [75.880664, 54.167969], [76.266602, 54.311963], [76.496484, 54.335693], [76.759375, 54.436865], [76.837305, 54.442383], [76.788965, 54.321875], [76.703027, 54.182471], [76.65459, 54.145264], [76.42168, 54.151514], [76.42207, 54.113525], [76.484766, 54.022559], [76.575684, 53.942529], [77.704395, 53.37915], [77.859961, 53.269189], [78.475488, 52.638428], [79.468848, 51.493115], [79.98623, 50.774561], [80.065918, 50.758203], [80.086328, 50.83999], [80.220215, 50.911768], [80.345215, 50.919092], [80.423633, 50.946289], [80.452246, 50.997607], [80.421484, 51.136377], [80.448047, 51.18335], [80.605469, 51.224219], [80.650488, 51.277344], [80.735254, 51.293408], [80.877344, 51.281445], [80.934082, 51.242773], [80.965625, 51.189795], [81.127246, 51.191064], [81.141016, 51.146582], [81.077539, 51.014941], [81.071484, 50.96875], [81.124609, 50.946289], [81.319141, 50.966406], [81.388281, 50.956494], [81.451563, 50.823682], [81.431445, 50.771143], [81.465918, 50.739844], [81.633887, 50.739111], [81.752051, 50.764404], [81.933691, 50.766357], [82.098047, 50.71084], [82.326367, 50.741895], [82.493945, 50.727588], [82.611719, 50.771484], [82.76084, 50.893359], [83.019238, 50.897266], [83.092773, 50.960596], [83.160254, 50.989209], [83.357324, 50.99458], [83.717773, 50.887158], [83.945117, 50.774658], [84.002344, 50.676855], [84.099316, 50.604736], [84.175977, 50.520557], [84.194531, 50.437451], [84.257812, 50.288232], [84.323242, 50.23916], [84.607324, 50.202393], [84.838965, 50.091309], [84.924023, 50.087988], [84.989453, 50.061426], [84.999707, 50.010303], [84.975195, 49.951074], [85.000781, 49.894141], [85.210156, 49.664844], [85.232617, 49.61582], [85.291895, 49.599463], [85.371582, 49.623926], [85.933594, 49.550439], [85.974414, 49.499316], [86.180859, 49.499316], [86.292383, 49.5875], [86.417969, 49.638477], [86.610156, 49.769141], [86.675488, 49.777295], [86.728711, 49.748682], [86.730664, 49.695557], [86.614258, 49.609717], [86.626465, 49.562695], [86.714355, 49.558594], [86.812109, 49.487891], [86.95293, 49.32207], [87.000977, 49.287305], [87.070605, 49.25459], [87.233691, 49.216162], [87.296875, 49.147656], [87.322852, 49.085791], [87.22998, 49.105859], [87.048535, 49.109912], [86.885938, 49.090576], [86.753125, 49.008838], [86.728613, 48.939355], [86.757812, 48.860742], [86.717969, 48.697168], [86.549414, 48.528613], [86.265625, 48.454541], [85.829883, 48.408057], [85.749414, 48.385059], [85.626367, 48.204004], [85.562305, 48.051855], [85.525977, 47.915625], [85.561621, 47.746484], [85.586621, 47.493652], [85.669824, 47.338379], [85.656641, 47.254639], [85.577246, 47.188477], [85.529688, 47.100781], [85.484766, 47.063525], [85.233496, 47.036377], [85.012207, 46.909229], [84.858203, 46.843164], [84.786133, 46.830713], [84.745996, 46.864355], [84.719531, 46.939355], [84.666602, 46.972363], [84.338867, 46.996143], [84.016016, 46.970508], [83.713965, 47.021045], [83.090332, 47.209375], [83.029492, 47.185937], [83.004102, 47.033496], [82.974902, 46.966016], [82.692187, 46.38667], [82.555078, 46.158691], [82.511719, 46.005811], [82.429688, 45.811914], [82.315234, 45.594922], [82.32666, 45.519922], [82.611621, 45.424268], [82.625781, 45.374414], [82.621094, 45.293115], [82.596973, 45.215967], [82.521484, 45.125488], [82.478711, 45.123584], [82.323438, 45.205859], [82.266602, 45.219092], [81.944922, 45.16084], [81.86748, 45.18208], [81.789648, 45.226025], [81.758887, 45.31084], [81.691992, 45.349365], [81.602051, 45.31084], [80.85332, 45.129297], [80.634766, 45.126514], [80.05918, 45.006445], [79.871875, 44.883789], [79.875293, 44.86084], [79.997168, 44.797217], [80.255078, 44.808105], [80.455469, 44.746094], [80.481543, 44.714648], [80.455469, 44.684082], [80.400586, 44.676904], [80.381445, 44.65542], [80.391016, 44.626807], [80.355078, 44.552002], [80.336328, 44.438379], [80.365332, 44.223291], [80.355273, 44.097266], [80.395801, 44.047168], [80.431543, 43.951758], [80.495996, 43.89209], [80.650781, 43.56416], [80.703809, 43.427051], [80.66543, 43.352979], [80.667773, 43.310059], [80.729785, 43.274268], [80.785742, 43.161572], [80.777734, 43.118945], [80.751172, 43.10249], [80.616992, 43.128271], [80.390234, 43.043115], [80.371289, 42.995605], [80.383398, 42.973779], [80.450684, 42.935547], [80.54375, 42.911719], [80.538965, 42.873486], [80.424023, 42.855762], [80.250293, 42.797266], [80.165039, 42.665527], [80.205762, 42.399414], [80.255078, 42.27417], [80.259082, 42.2354], [80.209375, 42.190039], [80.246191, 42.059814], [80.235156, 42.043457], [79.909668, 42.01499], [79.84043, 41.995752], [79.766113, 41.898877], [79.354395, 41.781055], [79.293555, 41.782812], [78.742578, 41.560059], [78.362402, 41.371631], [78.346289, 41.281445], [78.123438, 41.075635], [77.956445, 41.050684], [77.815234, 41.055615], [77.581738, 40.992773], [77.182031, 41.010742], [76.986621, 41.03916], [76.907715, 41.02417], [76.824023, 40.982324], [76.708398, 40.818115], [76.661133, 40.779639], [76.57793, 40.577881], [76.480176, 40.449512], [76.318555, 40.352246], [76.258301, 40.430762], [76.156641, 40.376465], [76.062305, 40.387549], [76.004297, 40.371436], [75.871973, 40.303223], [75.677148, 40.305811], [75.655957, 40.329248], [75.617383, 40.516602], [75.583496, 40.605322], [75.520801, 40.627539], [75.241016, 40.480273], [75.004492, 40.449512], [74.865625, 40.493506], [74.835156, 40.482617], [74.80127, 40.428516], [74.841797, 40.344971], [74.830469, 40.328516], [74.679883, 40.310596], [74.411914, 40.137207], [74.242676, 40.092041], [74.020508, 40.059375], [73.93877, 39.978809], [73.835352, 39.800146], [73.839746, 39.762842], [73.88252, 39.714551], [73.914648, 39.606494], [73.907129, 39.578516], [73.822949, 39.488965], [73.631641, 39.448877], [73.636328, 39.39668], [73.607324, 39.229199], [73.69043, 39.104541], [73.795605, 39.002148], [73.805273, 38.968652], [73.794531, 38.941309], [73.72998, 38.914697], [73.696094, 38.854297], [73.754102, 38.698926], [73.80166, 38.606885], [73.869141, 38.562891], [73.97002, 38.533691], [74.025586, 38.539844], [74.065332, 38.608496], [74.131348, 38.661182], [74.277441, 38.659766], [74.514063, 38.6], [74.74502, 38.51001], [74.812305, 38.460303], [74.835938, 38.404297], [74.77207, 38.274756], [74.775098, 38.191895], [74.789648, 38.103613], [74.84248, 38.038086], [74.89082, 37.925781], [74.900293, 37.832715], [74.938281, 37.77251], [74.894238, 37.601416], [74.91582, 37.572803], [75.097461, 37.45127], [75.11875, 37.385693], [75.008398, 37.293555], [74.891309, 37.231641], [74.840234, 37.225049], [74.767383, 37.24917], [74.72666, 37.290723], [74.372168, 37.157715], [74.376172, 37.137354], [74.541406, 37.022168], [74.692188, 37.035742], [74.889258, 36.952441], [75.053906, 36.987158], [75.34668, 36.913477], [75.376855, 36.883691], [75.424219, 36.738232], [75.460254, 36.725049], [75.57373, 36.759326], [75.667188, 36.741992], [75.840234, 36.649707], [75.933008, 36.521582], [75.974414, 36.382422], [75.968652, 36.168848], [75.904883, 36.088477], [75.912305, 36.048975], [75.945117, 36.017578], [76.070898, 35.983008], [76.10332, 35.949219], [76.147852, 35.829004], [76.177832, 35.810547], [76.385742, 35.837158], [76.55127, 35.887061], [76.563477, 35.772998], [76.766895, 35.661719], [77.048633, 35.109912], [77.000879, 34.991992], [76.78291, 34.900195], [76.696289, 34.786914], [76.594434, 34.73584], [76.456738, 34.756104], [76.172461, 34.667725], [76.041016, 34.669922], [75.862109, 34.560254], [75.70918, 34.503076], [75.605566, 34.502734], [75.452539, 34.536719], [75.1875, 34.639014], [74.951855, 34.64585], [74.300391, 34.765381], [73.96123, 34.653467], [73.794531, 34.378223], [73.809961, 34.325342], [73.924609, 34.287842], [73.972363, 34.236621], [73.979492, 34.191309], [73.903906, 34.108008], [73.904102, 34.075684], [73.949902, 34.018799], [74.246484, 33.990186], [74.250879, 33.946094], [74.215625, 33.886572], [74.078418, 33.838672], [74.000977, 33.788184], [73.976465, 33.721289], [73.977539, 33.667822], [74.004004, 33.632422], [74.13125, 33.545068], [74.15, 33.506982], [74.117773, 33.384131], [73.994238, 33.242188], [74.003809, 33.189453], [74.12627, 33.075439], [74.303613, 32.991797], [74.32998, 32.86084], [74.305469, 32.810449], [74.35459, 32.768701], [74.483398, 32.770996], [74.588281, 32.753223], [74.632422, 32.770898], [74.663281, 32.757666], [74.643359, 32.607715], [74.657813, 32.518945], [74.685742, 32.493799], [74.788867, 32.457812], [74.987305, 32.462207], [75.233691, 32.372119], [75.333496, 32.279199], [75.324707, 32.215283], [75.254102, 32.140332], [75.071484, 32.089355], [74.739453, 31.948828], [74.635742, 31.889746], [74.555566, 31.818555], [74.509961, 31.712939], [74.593945, 31.465381], [74.517676, 31.185596], [74.539746, 31.132666], [74.610352, 31.112842], [74.632812, 31.034668], [74.380371, 30.893408], [74.339355, 30.893555], [74.215625, 30.768994], [74.008984, 30.519678], [73.899316, 30.435352], [73.882715, 30.352148], [73.924609, 30.281641], [73.933398, 30.22207], [73.80918, 30.093359], [73.381641, 29.934375], [73.231152, 29.550635], [73.12832, 29.363916], [72.90332, 29.02876], [72.341895, 28.751904], [72.291992, 28.697266], [72.179199, 28.421777], [72.128516, 28.346338], [71.948047, 28.177295], [71.888867, 28.047461], [71.870313, 27.9625], [71.542969, 27.869873], [71.290137, 27.855273], [71.184766, 27.831641], [70.874902, 27.714453], [70.797949, 27.709619], [70.737402, 27.729004], [70.691602, 27.768994], [70.649121, 27.835352], [70.629102, 27.937451], [70.488574, 28.023145], [70.403711, 28.025049], [70.244336, 27.934131], [70.144531, 27.849023], [69.896289, 27.473633], [69.621582, 27.228076], [69.537012, 27.122949], [69.47002, 26.804443], [69.506934, 26.742676], [69.735938, 26.627051], [69.911426, 26.586133], [70.059375, 26.57876], [70.114648, 26.548047], [70.147656, 26.506445], [70.156836, 26.471436], [70.132617, 26.214795], [70.077734, 26.071973], [70.078613, 25.990039], [70.100195, 25.910059], [70.264648, 25.706543], [70.325195, 25.685742], [70.448535, 25.681348], [70.569531, 25.705957], [70.648438, 25.666943], [70.652051, 25.4229], [70.702539, 25.331055], [70.800488, 25.205859], [70.877734, 25.062988], [71.047852, 24.687744], [70.976367, 24.61875], [70.969824, 24.571875], [70.973242, 24.487402], [71.00625, 24.444336], [71.045313, 24.42998], [71.044043, 24.400098], [70.982813, 24.361035], [70.928125, 24.362354], [70.88623, 24.34375], [70.805078, 24.261963], [70.716309, 24.237988], [70.579297, 24.279053], [70.555859, 24.331104], [70.565039, 24.385791], [70.546777, 24.418311], [70.489258, 24.412158], [70.098242, 24.2875], [70.021094, 24.191553], [69.805176, 24.165234], [69.716211, 24.172607], [69.55918, 24.273096], [69.119531, 24.268652], [69.051563, 24.286328], [68.98457, 24.273096], [68.900781, 24.292432], [68.863477, 24.266504], [68.82832, 24.264014], [68.8, 24.309082], [68.781152, 24.313721], [68.739648, 24.291992], [68.728125, 24.265625], [68.724121, 23.964697], [68.488672, 23.967236], [68.28252, 23.927979], [68.165039, 23.857324], [68.148828, 23.797217], [68.115527, 23.753369], [68.037012, 23.848242], [68.001465, 23.826074], [67.950977, 23.828613], [67.859961, 23.902686], [67.819043, 23.828076], [67.668457, 23.810986], [67.645801, 23.919873], [67.563086, 23.881836], [67.503613, 23.940039], [67.476855, 24.018262], [67.427637, 24.064844], [67.365234, 24.091602], [67.309375, 24.174805], [67.288672, 24.367773], [67.171484, 24.756104], [67.100586, 24.791943], [66.703027, 24.860937], [66.682227, 24.928857], [66.709863, 25.111328], [66.698633, 25.226318], [66.569922, 25.378516], [66.533887, 25.484375], [66.428613, 25.575342], [66.324219, 25.601807], [66.219043, 25.589893], [66.162305, 25.553906], [66.131152, 25.493262], [66.356445, 25.507373], [66.467676, 25.445312], [66.234668, 25.464355], [65.883594, 25.419629], [65.679688, 25.355273], [65.40625, 25.374316], [65.061328, 25.311084], [64.77666, 25.307324], [64.658984, 25.184082], [64.54375, 25.23667], [64.152051, 25.333447], [64.124902, 25.373926], [64.059375, 25.40293], [63.987305, 25.351172], [63.935547, 25.342529], [63.720898, 25.385889], [63.556641, 25.353174], [63.495703, 25.29751], [63.491406, 25.21084], [63.285742, 25.227588], [63.17002, 25.254883], [63.015039, 25.224658], [62.664746, 25.264795], [62.572461, 25.254736], [62.444727, 25.197266], [62.391211, 25.152539], [62.315332, 25.134912], [62.198633, 25.224854], [62.089453, 25.155322], [61.90791, 25.131299], [61.743652, 25.138184], [61.566895, 25.186328], [61.587891, 25.202344], [61.533105, 25.195508], [61.412207, 25.1021], [60.663867, 25.282227], [60.615137, 25.329834], [60.5875, 25.413525], [60.510547, 25.437061], [60.400195, 25.311572], [60.024707, 25.384131], [59.89707, 25.361816], [59.818359, 25.400879], [59.616016, 25.403271], [59.456055, 25.481494], [59.227246, 25.427734], [59.046094, 25.417285], [58.797852, 25.55459], [58.530859, 25.592432], [58.314258, 25.580859], [58.20293, 25.591602], [58.022363, 25.64082], [57.936621, 25.69165], [57.796094, 25.653027], [57.73252, 25.724902], [57.33457, 25.791553], [57.205566, 26.037207], [57.201367, 26.158838], [57.104297, 26.371436], [57.071973, 26.680078], [57.036035, 26.800684], [56.982227, 26.905469], [56.910449, 26.99458], [56.812891, 27.08999], [56.728125, 27.127686], [56.356152, 27.200244], [56.118066, 27.143115], [55.941113, 27.037598], [55.650293, 26.977539], [55.591602, 26.932129], [55.518555, 26.829932], [55.424023, 26.770557], [55.294141, 26.785937], [55.15459, 26.725391], [54.895801, 26.556689], [54.759277, 26.505078], [54.644922, 26.508936], [54.52207, 26.58916], [54.24707, 26.696631], [54.069336, 26.732373], [53.822559, 26.707715], [53.705762, 26.725586], [53.507129, 26.851758], [53.45498, 26.943262], [53.341699, 27.004492], [52.98252, 27.141943], [52.691602, 27.323389], [52.638184, 27.391992], [52.602637, 27.493359], [52.475879, 27.616504], [52.191895, 27.717285], [52.030762, 27.824414], [51.841992, 27.848242], [51.666309, 27.844971], [51.589063, 27.864209], [51.518555, 27.91001], [51.278906, 28.131348], [51.276074, 28.218848], [51.128418, 28.435156], [51.093848, 28.512109], [51.062012, 28.726123], [51.021191, 28.78208], [50.866992, 28.870166], [50.842969, 28.927832], [50.875781, 29.004395], [50.875781, 29.062695], [50.795508, 29.117432], [50.675195, 29.146582], [50.646094, 29.212207], [50.667969, 29.339844], [50.649609, 29.420068], [50.543555, 29.547998], [50.386914, 29.679053], [50.230176, 29.8729], [50.168945, 29.92124], [50.071582, 30.198535], [49.983105, 30.209375], [49.554883, 30.028955], [49.42998, 30.130469], [49.054297, 30.306934], [49.001953, 30.373926], [49.096191, 30.406787], [49.190332, 30.375391], [49.247266, 30.4125], [49.224512, 30.472314], [49.130371, 30.509424], [49.001953, 30.506543], [49.037109, 30.450488], [48.916797, 30.397266], [48.891211, 30.327637], [48.919141, 30.120898], [48.832422, 30.035498], [48.670898, 30.02832], [48.595508, 29.975049], [48.454199, 29.938477], [48.35459, 29.956738], [48.141699, 30.040918], [48.072754, 30.043213], [47.98252, 30.011328], [47.973633, 29.945898], [48.005664, 29.835791], [48.136133, 29.618115], [48.143457, 29.572461], [47.969629, 29.616699], [47.725293, 29.416943], [47.722656, 29.393018], [47.845313, 29.365723], [47.935352, 29.366602], [47.998145, 29.385547], [48.051465, 29.355371], [48.183789, 28.979395], [48.25293, 28.90127], [48.339258, 28.763281], [48.389648, 28.631592], [48.498535, 28.448877], [48.523047, 28.355029], [48.626367, 28.132568], [48.77373, 27.959082], [48.808984, 27.895898], [48.832813, 27.800684], [48.797168, 27.724316], [48.906445, 27.629053], [49.2375, 27.492725], [49.175098, 27.437646], [49.405273, 27.180957], [49.537695, 27.151758], [49.716504, 26.955859], [49.986133, 26.828906], [50.149805, 26.662646], [50.026367, 26.699219], [50.008105, 26.678516], [50.027344, 26.526855], [50.184961, 26.404932], [50.213867, 26.308496], [50.155469, 26.100537], [50.053906, 26.122852], [50.031641, 26.110986], [50.081055, 25.961377], [50.130273, 25.846631], [50.189648, 25.755811], [50.238965, 25.622852], [50.28125, 25.566113], [50.455176, 25.424805], [50.508496, 25.306689], [50.55791, 25.08667], [50.804395, 24.789258], [50.846777, 24.888574], [50.777344, 25.177441], [50.75459, 25.399268], [50.762891, 25.444727], [50.868652, 25.612695], [51.003125, 25.981445], [51.108105, 26.080566], [51.262305, 26.153271], [51.389063, 26.011133], [51.543066, 25.902393], [51.572266, 25.781006], [51.526953, 25.682129], [51.485352, 25.524707], [51.601953, 25.147949], [51.608887, 25.052881], [51.586914, 24.964844], [51.533398, 24.890869], [51.42793, 24.668262], [51.396484, 24.645117], [51.267969, 24.607227], [51.338477, 24.564355], [51.41123, 24.570801], [51.418359, 24.530957], [51.369922, 24.476904], [51.309863, 24.340381], [51.534766, 24.286328], [51.568359, 24.286182], [51.605469, 24.338428], [51.664551, 24.250439], [51.767578, 24.254395], [51.791699, 24.074756], [51.843164, 24.010889], [51.906055, 23.985352], [52.118555, 23.971094], [52.250879, 23.995215], [52.511426, 24.1125], [52.648242, 24.154639], [53.026367, 24.147314], [53.32959, 24.098438], [53.801758, 24.069482], [53.893359, 24.077051], [54.147949, 24.171191], [54.304297, 24.254297], [54.39707, 24.278174], [54.458398, 24.358252], [54.534668, 24.530957], [54.580469, 24.563525], [54.624121, 24.621289], [54.658984, 24.715527], [54.746777, 24.810449], [55.098145, 25.041602], [55.303516, 25.236816], [55.32168, 25.299805], [55.433398, 25.394482], [55.522852, 25.498145], [55.941211, 25.793994], [56.025195, 25.916016], [56.074609, 26.052783], [56.164453, 26.207031], [56.197266, 26.229199], [56.228418, 26.219775], [56.305566, 26.235205], [56.378711, 26.356348], [56.413086, 26.351172], [56.429785, 26.327197], [56.416406, 26.10874], [56.373633, 25.80459], [56.307227, 25.709326], [56.297852, 25.650684], [56.363477, 25.569385], [56.372852, 25.018311], [56.489844, 24.716357], [56.640625, 24.470312], [56.774121, 24.33457], [56.9125, 24.150195], [57.123047, 23.980713], [57.219824, 23.922754], [57.611328, 23.803662], [58.12041, 23.716553], [58.324512, 23.623828], [58.393164, 23.618164], [58.5, 23.645654], [58.578027, 23.643457], [58.773047, 23.517187], [58.830371, 23.397461], [58.911523, 23.33418], [58.983398, 23.234717], [59.029883, 23.130566], [59.194727, 22.971875], [59.310938, 22.793359], [59.429395, 22.66084], [59.535156, 22.578516], [59.823242, 22.508984], [59.8375, 22.420557], [59.8, 22.219922], [59.680859, 22.053809], [59.652539, 21.951367], [59.517578, 21.782324], [59.371484, 21.498828], [59.304492, 21.435352], [59.06875, 21.289062], [58.895703, 21.112793], [58.69043, 20.807129], [58.474219, 20.406885], [58.34873, 20.386914], [58.266016, 20.395459], [58.208984, 20.423975], [58.24502, 20.599219], [58.169434, 20.589502], [58.10293, 20.570361], [57.861816, 20.244141], [57.802148, 19.95459], [57.741211, 19.804492], [57.71416, 19.678418], [57.715137, 19.606934], [57.76084, 19.432227], [57.763965, 19.25332], [57.811621, 19.01709], [57.675781, 18.957861], [57.42793, 18.943799], [57.176563, 18.902588], [56.957227, 18.827832], [56.825977, 18.753516], [56.655078, 18.587354], [56.550781, 18.165967], [56.383496, 17.987988], [56.270313, 17.950781], [55.997656, 17.935205], [55.613867, 17.886084], [55.479102, 17.843262], [55.255371, 17.585645], [55.238184, 17.504736], [55.281445, 17.44624], [55.295605, 17.381592], [55.275195, 17.320898], [55.17373, 17.157617], [55.06416, 17.038916], [54.771875, 16.964648], [54.566504, 17.03125], [54.376953, 17.033643], [54.068164, 17.005518], [53.954395, 16.917822], [53.775391, 16.855713], [53.609863, 16.759961], [53.297754, 16.72334], [52.581445, 16.470361], [52.448438, 16.39126], [52.327734, 16.293555], [52.237305, 16.171387], [52.174023, 15.956836], [52.22207, 15.760596], [52.21748, 15.655518], [51.830762, 15.459277], [51.748633, 15.440137], [51.681543, 15.379102], [51.603711, 15.336816], [51.322461, 15.22627], [51.015137, 15.140771], [50.527051, 15.038184], [50.338574, 14.927197], [50.166895, 14.851025], [49.906348, 14.828125], [49.548633, 14.722412], [49.349902, 14.637793], [49.048047, 14.456445], [49.004688, 14.355029], [48.928711, 14.26748], [48.77998, 14.123877], [48.668359, 14.050146], [48.59375, 14.04624], [48.449023, 14.005908], [48.277832, 13.997656], [47.989941, 14.048096], [47.916016, 14.012842], [47.855078, 13.956934], [47.633398, 13.858447], [47.407715, 13.661621], [46.975684, 13.547461], [46.788867, 13.465576], [46.663477, 13.432715], [46.501953, 13.415576], [46.203125, 13.423828], [45.919727, 13.394287], [45.657324, 13.338721], [45.533984, 13.233496], [45.393555, 13.067041], [45.163867, 12.998291], [45.109766, 12.938574], [45.038672, 12.815869], [44.755273, 12.76377], [44.617773, 12.817236], [44.358496, 12.669141], [44.260352, 12.644629], [44.111523, 12.638672], [44.005859, 12.607666], [43.929785, 12.616504], [43.835352, 12.674414], [43.634375, 12.744482], [43.487598, 12.698828], [43.475293, 12.839014], [43.231934, 13.26709], [43.282422, 13.692529], [43.234082, 13.858936], [43.089063, 14.010986], [43.093359, 14.203662], [43.00625, 14.483105], [43.021094, 14.554883], [42.922168, 14.817383], [42.912988, 14.863086], [42.937305, 14.898047], [42.936426, 14.938574], [42.89707, 15.005566], [42.855664, 15.132959], [42.657813, 15.232812], [42.697852, 15.326318], [42.788477, 15.265723], [42.799902, 15.371631], [42.717188, 15.654639], [42.839648, 16.032031], [42.789844, 16.451562], [42.730664, 16.569824]], [[35.840723, 33.415674], [35.816125, 33.361879], [35.840738, 33.415661], [35.869141, 33.431738], [35.840723, 33.415674]]], [[[36.530273, 25.601562], [36.504297, 25.645117], [36.533594, 25.688721], [36.554102, 25.645361], [36.58877, 25.619824], [36.747559, 25.55874], [36.954785, 25.414648], [36.875195, 25.383057], [36.72207, 25.534033], [36.530273, 25.601562]]], [[[36.595605, 25.734863], [36.586133, 25.699219], [36.543945, 25.734277], [36.546484, 25.811621], [36.582715, 25.855518], [36.595605, 25.734863]]], [[[54.41377, 12.483301], [54.271289, 12.446631], [54.129492, 12.360645], [53.718848, 12.318994], [53.59834, 12.342285], [53.499414, 12.425342], [53.31582, 12.533154], [53.430957, 12.663574], [53.534961, 12.715771], [53.638477, 12.707373], [53.763184, 12.636816], [53.824805, 12.624805], [53.918555, 12.659424], [54.187402, 12.664014], [54.511133, 12.552783], [54.45, 12.523438], [54.41377, 12.483301]]], [[[53.689648, 24.210791], [53.833789, 24.258936], [53.927832, 24.177197], [53.928125, 24.143359], [53.826367, 24.153125], [53.799121, 24.135547], [53.634473, 24.169775], [53.689648, 24.210791]]], [[[52.657617, 24.332617], [52.6, 24.281299], [52.583594, 24.352344], [52.629395, 24.376758], [52.657617, 24.332617]]], [[[53.412402, 24.411035], [53.445312, 24.371191], [53.382617, 24.280859], [53.332227, 24.258594], [53.258301, 24.25293], [53.190918, 24.290918], [53.33252, 24.341602], [53.412402, 24.411035]]], [[[54.39834, 24.506348], [54.46543, 24.442773], [54.456641, 24.42334], [54.357715, 24.442773], [54.334766, 24.471045], [54.39834, 24.506348]]], [[[50.469922, 26.228955], [50.585938, 26.240723], [50.557813, 26.198291], [50.609766, 26.124463], [50.61748, 26.002344], [50.607227, 25.883105], [50.574902, 25.806787], [50.544043, 25.833496], [50.465918, 25.965527], [50.489453, 26.058447], [50.452441, 26.19082], [50.469922, 26.228955]]], [[[55.674609, 26.68584], [55.543164, 26.617529], [55.42373, 26.583105], [55.311523, 26.592627], [55.29502, 26.639209], [55.296484, 26.657568], [55.346973, 26.647949], [55.531738, 26.71001], [55.762598, 26.811963], [55.78457, 26.857178], [55.747461, 26.930957], [55.757617, 26.947656], [55.907129, 26.909814], [56.074121, 26.98335], [56.213965, 27.003271], [56.279395, 26.9521], [56.187988, 26.921143], [56.094922, 26.801172], [55.954297, 26.701123], [55.894141, 26.732275], [55.847656, 26.730811], [55.747266, 26.69248], [55.674609, 26.68584]]], [[[48.081445, 29.798926], [48.158594, 29.95957], [48.184766, 29.978857], [48.348242, 29.782666], [48.340234, 29.694727], [48.275391, 29.624316], [48.218262, 29.601953], [48.179688, 29.611426], [48.081445, 29.798926]]], [[[53.055176, 39.037939], [53.10957, 38.803076], [53.100195, 38.756152], [53.045898, 38.897217], [53.018555, 39.052734], [53.05332, 39.096582], [53.092188, 39.094092], [53.055176, 39.037939]]], [[[50.023047, 45.044727], [50.109863, 45.081934], [50.116602, 45.058252], [50.045313, 45.01001], [50.038867, 44.949121], [50.098145, 44.881543], [50.184473, 44.854639], [50.14873, 44.826465], [50.095313, 44.830615], [49.995117, 44.936963], [50.023047, 45.044727]]], [[[50.311719, 44.97207], [50.277246, 44.958594], [50.256152, 45.022412], [50.294922, 45.075928], [50.349707, 45.083008], [50.311719, 44.97207]]], [[[52.692969, 45.460742], [52.682422, 45.411816], [52.664844, 45.401318], [52.59834, 45.428174], [52.554297, 45.473975], [52.608887, 45.528027], [52.65957, 45.518066], [52.692969, 45.460742]]], [[[58.884375, 20.680566], [58.950781, 20.516162], [58.835156, 20.423926], [58.772266, 20.266846], [58.72207, 20.21875], [58.640918, 20.210693], [58.641211, 20.337354], [58.787988, 20.496582], [58.884375, 20.680566]]]]}}]}